[{"OBJECT_NAME":"ONEWEB-0124","OBJECT_ID":"2020-100N","EPOCH":"2026-03-11T07:23:42.093312","MEAN_MOTION":13.12441779,"ECCENTRICITY":0.00016625,"INCLINATION":87.8996,"RA_OF_ASC_NODE":10.1068,"ARG_OF_PERICENTER":80.2826,"MEAN_ANOMALY":279.849,"EPHEMERIS_TYPE":0,"CLASSIFICATION_TYPE":"U","NORAD_CAT_ID":47270,"ELEMENT_SET_NO":999,"REV_AT_EPOCH":25173,"BSTAR":-0.00076950908,"MEAN_MOTION_DOT":-2.64e-6,"MEAN_MOTION_DDOT":0},{"OBJECT_NAME":"ONEWEB-0125","OBJECT_ID":"2020-100P","EPOCH":"2026-03-11T06:51:59.287968","MEAN_MOTION":13.12444758,"ECCENTRICITY":0.00014646,"INCLINATION":87.9011,"RA_OF_ASC_NODE":10.0825,"ARG_OF_PERICENTER":75.0295,"MEAN_ANOMALY":285.0995,"EPHEMERIS_TYPE":0,"CLASSIFICATION_TYPE":"U","NORAD_CAT_ID":47271,"ELEMENT_SET_NO":999,"REV_AT_EPOCH":25179,"BSTAR":0.0011638189,"MEAN_MOTION_DOT":4.31e-6,"MEAN_MOTION_DDOT":0},{"OBJECT_NAME":"ONEWEB-0126","OBJECT_ID":"2020-100Q","EPOCH":"2026-03-11T07:21:27.674784","MEAN_MOTION":13.12441784,"ECCENTRICITY":0.0001909,"INCLINATION":87.8999,"RA_OF_ASC_NODE":10.1016,"ARG_OF_PERICENTER":78.4297,"MEAN_ANOMALY":281.7046,"EPHEMERIS_TYPE":0,"CLASSIFICATION_TYPE":"U","NORAD_CAT_ID":47272,"ELEMENT_SET_NO":999,"REV_AT_EPOCH":25186,"BSTAR":-0.00058219581,"MEAN_MOTION_DOT":-1.97e-6,"MEAN_MOTION_DDOT":0},{"OBJECT_NAME":"ONEWEB-0127","OBJECT_ID":"2020-100R","EPOCH":"2026-03-11T06:32:29.271264","MEAN_MOTION":13.12442653,"ECCENTRICITY":0.00019448,"INCLINATION":87.8995,"RA_OF_ASC_NODE":10.1115,"ARG_OF_PERICENTER":79.8265,"MEAN_ANOMALY":280.3083,"EPHEMERIS_TYPE":0,"CLASSIFICATION_TYPE":"U","NORAD_CAT_ID":47273,"ELEMENT_SET_NO":999,"REV_AT_EPOCH":25188,"BSTAR":0.0011755842,"MEAN_MOTION_DOT":4.36e-6,"MEAN_MOTION_DDOT":0},{"OBJECT_NAME":"ONEWEB-0128","OBJECT_ID":"2020-100S","EPOCH":"2026-03-11T07:04:11.820864","MEAN_MOTION":13.12442541,"ECCENTRICITY":0.00017863,"INCLINATION":87.8994,"RA_OF_ASC_NODE":10.1213,"ARG_OF_PERICENTER":91.3088,"MEAN_ANOMALY":268.8245,"EPHEMERIS_TYPE":0,"CLASSIFICATION_TYPE":"U","NORAD_CAT_ID":47274,"ELEMENT_SET_NO":999,"REV_AT_EPOCH":25190,"BSTAR":0.00063120639,"MEAN_MOTION_DOT":2.4e-6,"MEAN_MOTION_DDOT":0},{"OBJECT_NAME":"ONEWEB-0129","OBJECT_ID":"2020-100T","EPOCH":"2026-03-11T06:34:55.906752","MEAN_MOTION":13.12443518,"ECCENTRICITY":0.00029253,"INCLINATION":87.9004,"RA_OF_ASC_NODE":10.0891,"ARG_OF_PERICENTER":73.6567,"MEAN_ANOMALY":286.4883,"EPHEMERIS_TYPE":0,"CLASSIFICATION_TYPE":"U","NORAD_CAT_ID":47275,"ELEMENT_SET_NO":999,"REV_AT_EPOCH":25183,"BSTAR":0.0013755158,"MEAN_MOTION_DOT":5.08e-6,"MEAN_MOTION_DDOT":0},{"OBJECT_NAME":"ONEWEB-0130","OBJECT_ID":"2020-100U","EPOCH":"2026-03-11T07:13:57.015840","MEAN_MOTION":13.12442029,"ECCENTRICITY":0.00018981,"INCLINATION":87.9006,"RA_OF_ASC_NODE":10.0779,"ARG_OF_PERICENTER":81.406,"MEAN_ANOMALY":278.7284,"EPHEMERIS_TYPE":0,"CLASSIFICATION_TYPE":"U","NORAD_CAT_ID":47276,"ELEMENT_SET_NO":999,"REV_AT_EPOCH":25180,"BSTAR":-1.233921e-6,"MEAN_MOTION_DOT":1.2e-7,"MEAN_MOTION_DDOT":0},{"OBJECT_NAME":"ONEWEB-0131","OBJECT_ID":"2020-100V","EPOCH":"2026-03-11T07:09:03.998880","MEAN_MOTION":13.12442198,"ECCENTRICITY":0.00018209,"INCLINATION":87.8995,"RA_OF_ASC_NODE":10.1075,"ARG_OF_PERICENTER":84.3624,"MEAN_ANOMALY":275.7713,"EPHEMERIS_TYPE":0,"CLASSIFICATION_TYPE":"U","NORAD_CAT_ID":47277,"ELEMENT_SET_NO":999,"REV_AT_EPOCH":25184,"BSTAR":0.00019917506,"MEAN_MOTION_DOT":8.4e-7,"MEAN_MOTION_DDOT":0},{"OBJECT_NAME":"ONEWEB-0132","OBJECT_ID":"2020-100W","EPOCH":"2026-03-11T06:00:45.387648","MEAN_MOTION":13.12443332,"ECCENTRICITY":0.0001758,"INCLINATION":87.8998,"RA_OF_ASC_NODE":10.1162,"ARG_OF_PERICENTER":81.3031,"MEAN_ANOMALY":278.8297,"EPHEMERIS_TYPE":0,"CLASSIFICATION_TYPE":"U","NORAD_CAT_ID":47278,"ELEMENT_SET_NO":999,"REV_AT_EPOCH":25173,"BSTAR":-0.00083965518,"MEAN_MOTION_DOT":-2.89e-6,"MEAN_MOTION_DDOT":0},{"OBJECT_NAME":"ONEWEB-0133","OBJECT_ID":"2020-100X","EPOCH":"2026-03-11T06:24:57.877056","MEAN_MOTION":13.12443478,"ECCENTRICITY":0.00017625,"INCLINATION":87.901,"RA_OF_ASC_NODE":10.0776,"ARG_OF_PERICENTER":85.5889,"MEAN_ANOMALY":274.5441,"EPHEMERIS_TYPE":0,"CLASSIFICATION_TYPE":"U","NORAD_CAT_ID":47279,"ELEMENT_SET_NO":999,"REV_AT_EPOCH":25189,"BSTAR":0.0008726227,"MEAN_MOTION_DOT":3.27e-6,"MEAN_MOTION_DDOT":0},{"OBJECT_NAME":"ONEWEB-0134","OBJECT_ID":"2020-100Y","EPOCH":"2026-03-11T07:31:01.386336","MEAN_MOTION":13.12442719,"ECCENTRICITY":0.00020241,"INCLINATION":87.9011,"RA_OF_ASC_NODE":10.0656,"ARG_OF_PERICENTER":85.3257,"MEAN_ANOMALY":274.8102,"EPHEMERIS_TYPE":0,"CLASSIFICATION_TYPE":"U","NORAD_CAT_ID":47280,"ELEMENT_SET_NO":999,"REV_AT_EPOCH":25187,"BSTAR":-0.00086430238,"MEAN_MOTION_DOT":-2.98e-6,"MEAN_MOTION_DDOT":0},{"OBJECT_NAME":"ONEWEB-0135","OBJECT_ID":"2020-100Z","EPOCH":"2026-03-11T04:59:45.988224","MEAN_MOTION":13.12441803,"ECCENTRICITY":0.00019676,"INCLINATION":87.8997,"RA_OF_ASC_NODE":10.122,"ARG_OF_PERICENTER":88.8296,"MEAN_ANOMALY":271.3058,"EPHEMERIS_TYPE":0,"CLASSIFICATION_TYPE":"U","NORAD_CAT_ID":47281,"ELEMENT_SET_NO":999,"REV_AT_EPOCH":25188,"BSTAR":0.0011438244,"MEAN_MOTION_DOT":4.24e-6,"MEAN_MOTION_DDOT":0},{"OBJECT_NAME":"ONEWEB-0136","OBJECT_ID":"2020-100AA","EPOCH":"2026-03-11T07:16:24.313152","MEAN_MOTION":13.12444709,"ECCENTRICITY":0.00020757,"INCLINATION":87.9006,"RA_OF_ASC_NODE":10.0764,"ARG_OF_PERICENTER":87.1013,"MEAN_ANOMALY":273.0353,"EPHEMERIS_TYPE":0,"CLASSIFICATION_TYPE":"U","NORAD_CAT_ID":47282,"ELEMENT_SET_NO":999,"REV_AT_EPOCH":25182,"BSTAR":-0.00018980932,"MEAN_MOTION_DOT":-5.6e-7,"MEAN_MOTION_DDOT":0},{"OBJECT_NAME":"ONEWEB-0137","OBJECT_ID":"2020-100AB","EPOCH":"2026-03-11T06:15:22.318272","MEAN_MOTION":13.12442692,"ECCENTRICITY":0.00017633,"INCLINATION":87.901,"RA_OF_ASC_NODE":10.0901,"ARG_OF_PERICENTER":74.3766,"MEAN_ANOMALY":285.7557,"EPHEMERIS_TYPE":0,"CLASSIFICATION_TYPE":"U","NORAD_CAT_ID":47283,"ELEMENT_SET_NO":999,"REV_AT_EPOCH":25172,"BSTAR":0.00017890767,"MEAN_MOTION_DOT":7.7e-7,"MEAN_MOTION_DDOT":0},{"OBJECT_NAME":"ONEWEB-0138","OBJECT_ID":"2020-100AC","EPOCH":"2026-03-11T07:33:27.617472","MEAN_MOTION":13.12443079,"ECCENTRICITY":0.00020166,"INCLINATION":87.9007,"RA_OF_ASC_NODE":10.0887,"ARG_OF_PERICENTER":82.0142,"MEAN_ANOMALY":278.1215,"EPHEMERIS_TYPE":0,"CLASSIFICATION_TYPE":"U","NORAD_CAT_ID":47284,"ELEMENT_SET_NO":999,"REV_AT_EPOCH":25181,"BSTAR":-0.001055394,"MEAN_MOTION_DOT":-3.67e-6,"MEAN_MOTION_DDOT":0},{"OBJECT_NAME":"ONEWEB-0139","OBJECT_ID":"2020-100AD","EPOCH":"2026-03-11T06:42:26.882784","MEAN_MOTION":13.12444462,"ECCENTRICITY":0.00018311,"INCLINATION":87.9004,"RA_OF_ASC_NODE":10.0831,"ARG_OF_PERICENTER":78.3932,"MEAN_ANOMALY":281.7402,"EPHEMERIS_TYPE":0,"CLASSIFICATION_TYPE":"U","NORAD_CAT_ID":47285,"ELEMENT_SET_NO":999,"REV_AT_EPOCH":25188,"BSTAR":0.0015218698,"MEAN_MOTION_DOT":5.6e-6,"MEAN_MOTION_DDOT":0},{"OBJECT_NAME":"ONEWEB-0140","OBJECT_ID":"2020-100AE","EPOCH":"2026-03-11T07:26:08.460096","MEAN_MOTION":13.12442072,"ECCENTRICITY":0.00017292,"INCLINATION":87.9009,"RA_OF_ASC_NODE":10.0657,"ARG_OF_PERICENTER":84.6167,"MEAN_ANOMALY":275.5158,"EPHEMERIS_TYPE":0,"CLASSIFICATION_TYPE":"U","NORAD_CAT_ID":47286,"ELEMENT_SET_NO":999,"REV_AT_EPOCH":25185,"BSTAR":-0.00080489318,"MEAN_MOTION_DOT":-2.77e-6,"MEAN_MOTION_DDOT":0}]
