ONEWEB-0124             
1 47270U 20100N   26070.30812608 -.00000264  00000+0 -76951-3 0  9990
2 47270  87.8996  10.1068 0001662  80.2826 279.8490 13.12441779251732
ONEWEB-0125             
1 47271U 20100P   26070.28610287  .00000431  00000+0  11638-2 0  9991
2 47271  87.9011  10.0825 0001464  75.0295 285.0995 13.12444758251799
ONEWEB-0126             
1 47272U 20100Q   26070.30657031 -.00000197  00000+0 -58220-3 0  9993
2 47272  87.8999  10.1016 0001909  78.4297 281.7046 13.12441784251864
ONEWEB-0127             
1 47273U 20100R   26070.27256101  .00000436  00000+0  11756-2 0  9999
2 47273  87.8995  10.1115 0001944  79.8265 280.3083 13.12442653251884
ONEWEB-0128             
1 47274U 20100S   26070.29458126  .00000240  00000+0  63121-3 0  9990
2 47274  87.8994  10.1213 0001786  91.3088 268.8245 13.12442541251909
ONEWEB-0129             
1 47275U 20100T   26070.27425818  .00000508  00000+0  13755-2 0  9995
2 47275  87.9004  10.0891 0002925  73.6567 286.4883 13.12443518251836
ONEWEB-0130             
1 47276U 20100U   26070.30135435  .00000012  00000+0 -12339-5 0  9994
2 47276  87.9006  10.0779 0001898  81.4060 278.7284 13.12442029251809
ONEWEB-0131             
1 47277U 20100V   26070.29796295  .00000084  00000+0  19918-3 0  9996
2 47277  87.8995  10.1075 0001820  84.3624 275.7713 13.12442198251844
ONEWEB-0132             
1 47278U 20100W   26070.25052532 -.00000289  00000+0 -83966-3 0  9995
2 47278  87.8998  10.1162 0001758  81.3031 278.8297 13.12443332251734
ONEWEB-0133             
1 47279U 20100X   26070.26733654  .00000327  00000+0  87262-3 0  9992
2 47279  87.9010  10.0776 0001762  85.5889 274.5441 13.12443478251895
ONEWEB-0134             
1 47280U 20100Y   26070.31321049 -.00000298  00000+0 -86430-3 0  9996
2 47280  87.9011  10.0656 0002024  85.3257 274.8102 13.12442719251876
ONEWEB-0135             
1 47281U 20100Z   26070.20817116  .00000424  00000+0  11438-2 0  9994
2 47281  87.8997  10.1220 0001967  88.8296 271.3058 13.12441803251889
ONEWEB-0136             
1 47282U 20100AA  26070.30305918 -.00000056  00000+0 -18981-3 0  9992
2 47282  87.9006  10.0764 0002075  87.1013 273.0353 13.12444709251823
ONEWEB-0137             
1 47283U 20100AB  26070.26067498  .00000077  00000+0  17891-3 0  9996
2 47283  87.9010  10.0901 0001763  74.3766 285.7557 13.12442692251722
ONEWEB-0138             
1 47284U 20100AC  26070.31490298 -.00000367  00000+0 -10554-2 0  9993
2 47284  87.9007  10.0887 0002016  82.0142 278.1215 13.12443079251815
ONEWEB-0139             
1 47285U 20100AD  26070.27947781  .00000560  00000+0  15219-2 0  9999
2 47285  87.9004  10.0831 0001831  78.3932 281.7402 13.12444462251883
ONEWEB-0140             
1 47286U 20100AE  26070.30982014 -.00000277  00000+0 -80489-3 0  9991
2 47286  87.9009  10.0657 0001729  84.6167 275.5158 13.12442072251852
